{
"type": "FeatureCollection",
"name": "leitungtest",
"crs": { "type": "name", "properties": { "name": "urn:ogc:def:crs:OGC:1.3:CRS84" } },
"features": [
{"type":"Feature","properties":{"TARGET_FID":215,"START_uniq":"R-8E4C4","START_Stra":"Clara-Zetkin-Straße","END_uniqID":"R-8E506","START_Stat":"Complete","START_Scha":"R115.6.07 | D 105.90 | S 104.53","START_Sc_1":"R115.6.07","START_Line":"R115.6","START_Hand":"8E3A3","START_D_m":105.9,"START_Ausl":"6","Shape_Leng":60.750602191299997,"END_Straß":"Clara-Zetkin-Straße","END_Status":"Complete","END_Schach":"R115.6.06 | D 105.49 | S 103.87","END_Scha_1":"R115.6.06","START_S_m":104.53,"END_S_m":103.87,"END_Line":"R115.6","END_Handle":"8E3A3","END_D_m":105.49,"END_Auslau":"6","Direction":0.66,"Comment":null},"geometry":{"type":"MultiLineString","coordinates":[[[14.726007661385914,51.543305270975374,0.0],[14.726727262444729,51.542993743512,0.0]]]}},
{"type":"Feature","properties":{"TARGET_FID":216,"START_uniq":"R-8E499","START_Stra":"Görlitzer Straße","END_uniqID":"R-8E516","START_Stat":"Complete","START_Scha":"R132.6.02 | D 106.00 | S 104.69","START_Sc_1":"R132.6.02","START_Line":"R132.6","START_Hand":"8E3A4","START_D_m":106.0,"START_Ausl":"6","Shape_Leng":54.368271953600001,"END_Straß":"Görlitzer Straße","END_Status":"Complete","END_Schach":"R132.6.01 | D 105.65 | S 103.43","END_Scha_1":"R132.6.01","START_S_m":104.69,"END_S_m":103.43,"END_Line":"R132.6","END_Handle":"8E3A4","END_D_m":105.65,"END_Auslau":"6","Direction":1.26,"Comment":null},"geometry":{"type":"MultiLineString","coordinates":[[[14.726119356482027,51.542137610742351,0.0],[14.726614093918725,51.542516836971643,0.0]]]}},
{"type":"Feature","properties":{"TARGET_FID":217,"START_uniq":"R-8E4AF","START_Stra":"Schmelzstraße","END_uniqID":"R-8E3D5","START_Stat":"Complete","START_Scha":"R167.6.03 | D 110.65 | S 109.09","START_Sc_1":"R167.6.03","START_Line":"R167.6","START_Hand":"8E3A9","START_D_m":110.65,"START_Ausl":"6","Shape_Leng":5.0429175412199996,"END_Straß":"Neustädter Berggasse","END_Status":"Complete","END_Schach":"R156.6.03 | D 110.24 | S 108.44","END_Scha_1":"R156.6.03","START_S_m":109.09,"END_S_m":108.44,"END_Line":"R156.6","END_Handle":"8E3A9","END_D_m":110.24,"END_Auslau":"6","Direction":0.65,"Comment":null},"geometry":{"type":"MultiLineString","coordinates":[[[14.722916185189387,51.543282108881314,0.0],[14.722972431452696,51.543310849630529,0.0]]]}},
{"type":"Feature","properties":{"TARGET_FID":218,"START_uniq":"R-8E3E1","START_Stra":"Clara-Zetkin-Straße","END_uniqID":"R-8E4CE","START_Stat":"Complete","START_Scha":"R115.6.13 | D 107.60 | S 105.95","START_Sc_1":"R115.6.13","START_Line":"R115.6","START_Hand":"8E3BC","START_D_m":107.6,"START_Ausl":"6","Shape_Leng":13.4805589002,"END_Straß":"Clara-Zetkin-Straße","END_Status":"Complete","END_Schach":"R115.6.12 | D 107.30 | S 105.71","END_Scha_1":"R115.6.12","START_S_m":105.95,"END_S_m":105.71,"END_Line":"R115.6","END_Handle":"8E3BC","END_D_m":107.3,"END_Auslau":"6","Direction":0.24,"Comment":null},"geometry":{"type":"MultiLineString","coordinates":[[[14.724148993905272,51.543642887956857,0.0],[14.724343322992224,51.543646009771365,0.0]]]}},
{"type":"Feature","properties":{"TARGET_FID":219,"START_uniq":"R-8E3E5","START_Stra":"Clara-Zetkin-Straße","END_uniqID":"R-8E3E8","START_Stat":"Complete","START_Scha":"R115.6.15 | D 108.37 | S 106.95","START_Sc_1":"R115.6.15","START_Line":"R115.6","START_Hand":"8E3BE","START_D_m":108.37,"START_Ausl":"6","Shape_Leng":47.433901735799999,"END_Straß":"Clara-Zetkin-Straße","END_Status":"Complete","END_Schach":"R115.6.14 | D 108.03 | S 106.85","END_Scha_1":"R115.6.14","START_S_m":106.95,"END_S_m":106.85,"END_Line":"R115.6","END_Handle":"8E3BE","END_D_m":108.03,"END_Auslau":"6","Direction":0.1,"Comment":null},"geometry":{"type":"MultiLineString","coordinates":[[[14.722798636538764,51.543854606937572,0.0],[14.723418661813289,51.543674490159397,0.0]]]}},
{"type":"Feature","properties":{"TARGET_FID":220,"START_uniq":"R-8E3E2","START_Stra":"Neustädter Berggasse","END_uniqID":"R-8E3E1","START_Stat":"Complete","START_Scha":"R156.6.01 | D 107.53 | S 106.06","START_Sc_1":"R156.6.01","START_Line":"R156.6","START_Hand":"8E3C4","START_D_m":107.53,"START_Ausl":"6","Shape_Leng":6.9088465745100001,"END_Straß":"Clara-Zetkin-Straße","END_Status":"Complete","END_Schach":"R115.6.13 | D 107.60 | S 105.95","END_Scha_1":"R115.6.13","START_S_m":106.06,"END_S_m":105.95,"END_Line":"R115.6","END_Handle":"8E3C4","END_D_m":107.6,"END_Auslau":"6","Direction":0.11,"Comment":null},"geometry":{"type":"MultiLineString","coordinates":[[[14.724086764073681,51.543581858953672,0.0],[14.724133205668743,51.543636818319051,0.0]]]}},
{"type":"Feature","properties":{"TARGET_FID":221,"START_uniq":"R-8E3E3","START_Stra":"Neustädter Berggasse","END_uniqID":"R-8E3E2","START_Stat":"Complete","START_Scha":"R156.6.02 | D 108.35 | S 106.87","START_Sc_1":"R156.6.02","START_Line":"R156.6","START_Hand":"8E3C5","START_D_m":108.35,"START_Ausl":"6","Shape_Leng":39.543761095800001,"END_Straß":"Neustädter Berggasse","END_Status":"Complete","END_Schach":"R156.6.01 | D 107.53 | S 106.06","END_Scha_1":"R156.6.01","START_S_m":106.87,"END_S_m":106.06,"END_Line":"R156.6","END_Handle":"8E3C5","END_D_m":107.53,"END_Auslau":"6","Direction":0.81,"Comment":null},"geometry":{"type":"MultiLineString","coordinates":[[[14.723538228109625,51.543448497989445,0.0],[14.724071842679914,51.54357385723452,0.0]]]}},
{"type":"Feature","properties":{"TARGET_FID":222,"START_uniq":"R-8E3DD","START_Stra":null,"END_uniqID":"R-8E3DE","START_Stat":"Complete","START_Scha":"R | D 108.96 | S 107.85","START_Sc_1":"R-8E3DD","START_Line":"R156.6","START_Hand":"8E3C9","START_D_m":108.96,"START_Ausl":"6","Shape_Leng":9.3848044462899995,"END_Straß":"Neustädter Berggasse","END_Status":"Complete","END_Schach":"R156.6.05 | D 108.93 | S 107.77","END_Scha_1":"R156.6.05","START_S_m":107.85,"END_S_m":107.77,"END_Line":"R156.6","END_Handle":"8E3C9","END_D_m":108.93,"END_Auslau":"6","Direction":0.08,"Comment":null},"geometry":{"type":"MultiLineString","coordinates":[[[14.723371328293316,51.543261149536605,0.0],[14.723320321325332,51.5433393108841,0.0]]]}},
{"type":"Feature","properties":{"TARGET_FID":223,"START_uniq":"R-8E3D5","START_Stra":"Neustädter Berggasse","END_uniqID":"R-8E3E3","START_Stat":"Complete","START_Scha":"R156.6.03 | D 110.24 | S 108.44","START_Sc_1":"R156.6.03","START_Line":"R156.6","START_Hand":"8E3CC","START_D_m":110.24,"START_Ausl":"6","Shape_Leng":39.229633071599999,"END_Straß":"Neustädter Berggasse","END_Status":"Complete","END_Schach":"R156.6.02 | D 108.35 | S 106.87","END_Scha_1":"R156.6.02","START_S_m":108.44,"END_S_m":106.87,"END_Line":"R156.6","END_Handle":"8E3CC","END_D_m":108.35,"END_Auslau":"6","Direction":1.57,"Comment":null},"geometry":{"type":"MultiLineString","coordinates":[[[14.722991181946734,51.543317295976472,0.0],[14.723519129714402,51.54344399491363,0.0]]]}},
{"type":"Feature","properties":{"TARGET_FID":224,"START_uniq":"R-8E4BA","START_Stra":"Schmelzstraße","END_uniqID":"R-8E492","START_Stat":"Complete","START_Scha":"R167.6.05 | D 110.15 | S 108.97","START_Sc_1":"R167.6.05","START_Line":"R167.6","START_Hand":"8E3CF","START_D_m":110.15,"START_Ausl":"6","Shape_Leng":31.7564324001,"END_Straß":"Schmelzstraße","END_Status":"Complete","END_Schach":"R167.6.06 | D 109.23 | S 107.77","END_Scha_1":"R167.6.06","START_S_m":108.97,"END_S_m":107.77,"END_Line":"R167.6","END_Handle":"8E3CF","END_D_m":109.23,"END_Auslau":"6","Direction":1.2,"Comment":null},"geometry":{"type":"MultiLineString","coordinates":[[[14.723133149358921,51.542893910467875,0.0],[14.723346468878315,51.542641242810831,0.0]]]}},
{"type":"Feature","properties":{"TARGET_FID":225,"START_uniq":"R-8E4AC","START_Stra":null,"END_uniqID":"Junc-507","START_Stat":"Complete","START_Scha":"R | D 107.60 | S 106.03","START_Sc_1":"R-8E4AC","START_Line":"R130.6","START_Hand":"8E3D0","START_D_m":107.6,"START_Ausl":"6","Shape_Leng":19.332910610700001,"END_Straß":null,"END_Status":"Missing Info","END_Schach":null,"END_Scha_1":"R130.6.3-4.Junction","START_S_m":106.03,"END_S_m":105.9,"END_Line":"R130.6","END_Handle":"8E3D0","END_D_m":107.7,"END_Auslau":"6","Direction":0.13,"Comment":null},"geometry":{"type":"MultiLineString","coordinates":[[[14.724216786226965,51.542843389815822,0.0],[14.724280159066129,51.542674106617504,0.0]]]}},
{"type":"Feature","properties":{"TARGET_FID":226,"START_uniq":"R-8E3DE","START_Stra":"Neustädter Berggasse","END_uniqID":"Junc-508","START_Stat":"Complete","START_Scha":"R156.6.05 | D 108.93 | S 107.77","START_Sc_1":"R156.6.05","START_Line":"R156.6","START_Hand":"8E3D8","START_D_m":108.93,"START_Ausl":"6","Shape_Leng":4.4139705495000001,"END_Straß":null,"END_Status":"Missing Info","END_Schach":null,"END_Scha_1":"R156.6.3-2.Junction","START_S_m":107.77,"END_S_m":107.2,"END_Line":"R156.6","END_Handle":"8E3D8","END_D_m":108.9,"END_Auslau":"6","Direction":0.57,"Comment":null},"geometry":{"type":"MultiLineString","coordinates":[[[14.723312487027927,51.543351871777979,0.0],[14.723290342490079,51.54338908110028,0.0]]]}},
{"type":"Feature","properties":{"TARGET_FID":227,"START_uniq":"R-8E3E8","START_Stra":"Clara-Zetkin-Straße","END_uniqID":"R-8E3E1","START_Stat":"Complete","START_Scha":"R115.6.14 | D 108.03 | S 106.85","START_Sc_1":"R115.6.14","START_Line":"R115.6","START_Hand":"8E3DF","START_D_m":108.03,"START_Ausl":"6","Shape_Leng":47.6096591222,"END_Straß":"Clara-Zetkin-Straße","END_Status":"Complete","END_Schach":"R115.6.13 | D 107.60 | S 105.95","END_Scha_1":"R115.6.13","START_S_m":106.85,"END_S_m":105.95,"END_Line":"R115.6","END_Handle":"8E3DF","END_D_m":107.6,"END_Auslau":"6","Direction":0.9,"Comment":null},"geometry":{"type":"MultiLineString","coordinates":[[[14.723442306309346,51.543670789163414,0.0],[14.72412747387531,51.543643682582619,0.0]]]}},
{"type":"Feature","properties":{"TARGET_FID":228,"START_uniq":"R-8E4DD","START_Stra":"Schmelzstraße","END_uniqID":"R-8E4DE","START_Stat":"Complete","START_Scha":"R167.6.02 | D 110.55 | S 109.12","START_Sc_1":"R167.6.02","START_Line":"R167.6","START_Hand":"8E3EC","START_D_m":110.55,"START_Ausl":"6","Shape_Leng":52.160715706600001,"END_Straß":"Schmelzstraße","END_Status":"Complete","END_Schach":"R167.6.01 | D 108.69 | S 107.43","END_Scha_1":"R167.6.01","START_S_m":109.12,"END_S_m":107.43,"END_Line":"R167.6","END_Handle":"8E3EC","END_D_m":108.69,"END_Auslau":"6","Direction":1.69,"Comment":null},"geometry":{"type":"MultiLineString","coordinates":[[[14.722887661595919,51.54335646479867,0.0],[14.722779505344606,51.54382060015076,0.0]]]}},
{"type":"Feature","properties":{"TARGET_FID":229,"START_uniq":"R-8E3E8","START_Stra":"Clara-Zetkin-Straße","END_uniqID":"R-8E3E1","START_Stat":"Complete","START_Scha":"R115.6.14 | D 108.03 | S 106.85","START_Sc_1":"R115.6.14","START_Line":"R115.6","START_Hand":"8E3ED","START_D_m":108.03,"START_Ausl":"6","Shape_Leng":47.788858432300003,"END_Straß":"Clara-Zetkin-Straße","END_Status":"Complete","END_Schach":"R115.6.13 | D 107.60 | S 105.95","END_Scha_1":"R115.6.13","START_S_m":106.85,"END_S_m":105.95,"END_Line":"R115.6","END_Handle":"8E3ED","END_D_m":107.6,"END_Auslau":"6","Direction":0.9,"Comment":null},"geometry":{"type":"MultiLineString","coordinates":[[[14.723439732770876,51.543670944049005,0.0],[14.72412747387531,51.543643682582619,0.0]]]}},
{"type":"Feature","properties":{"TARGET_FID":230,"START_uniq":"R-8E4AE","START_Stra":"Neustädter Berggasse","END_uniqID":"R-8E4AF","START_Stat":"Complete","START_Scha":"R156.6.04 | D 113.87 | S 112.46","START_Sc_1":"R156.6.04","START_Line":"R156.6","START_Hand":"8E3F1","START_D_m":113.87,"START_Ausl":"6","Shape_Leng":31.019370053300001,"END_Straß":"Schmelzstraße","END_Status":"Complete","END_Schach":"R167.6.03 | D 110.65 | S 109.09","END_Scha_1":"R167.6.03","START_S_m":112.46,"END_S_m":109.09,"END_Line":"R167.6","END_Handle":"8E3F1","END_D_m":110.65,"END_Auslau":"6","Direction":3.37,"Comment":null},"geometry":{"type":"MultiLineString","coordinates":[[[14.722459721923704,51.543236742468729,0.0],[14.722902185572888,51.543277665400758,0.0]]]}},
{"type":"Feature","properties":{"TARGET_FID":231,"START_uniq":"R-8E4BB","START_Stra":"Schmelzstraße","END_uniqID":"R-8E4BA","START_Stat":"Complete","START_Scha":"R167.6.04 | D 110.57 | S 109.37","START_Sc_1":"R167.6.04","START_Line":"R167.6","START_Hand":"8E3F4","START_D_m":110.57,"START_Ausl":"6","Shape_Leng":22.004286041,"END_Straß":"Schmelzstraße","END_Status":"Complete","END_Schach":"R167.6.05 | D 110.15 | S 108.97","END_Scha_1":"R167.6.05","START_S_m":109.37,"END_S_m":108.97,"END_Line":"R167.6","END_Handle":"8E3F4","END_D_m":110.15,"END_Auslau":"6","Direction":0.4,"Comment":null},"geometry":{"type":"MultiLineString","coordinates":[[[14.723004863382348,51.543089611155658,0.0],[14.723123920785232,51.54290621269638,0.0]]]}},
{"type":"Feature","properties":{"TARGET_FID":232,"START_uniq":"R-8E46C","START_Stra":"Schmelzstraße","END_uniqID":"R-8E46D","START_Stat":"Complete","START_Scha":"R167.6.12 | D 108.69 | S 107.47","START_Sc_1":"R167.6.12","START_Line":"R167.6","START_Hand":"8E3FA","START_D_m":108.69,"START_Ausl":"6","Shape_Leng":39.530221726699999,"END_Straß":"Schmelzstraße","END_Status":"Complete","END_Schach":"R167.6.13 | D 109.58 | S 107.29","END_Scha_1":"R167.6.13","START_S_m":107.47,"END_S_m":107.29,"END_Line":"R167.6","END_Handle":"8E3FA","END_D_m":109.58,"END_Auslau":"6","Direction":0.18,"Comment":null},"geometry":{"type":"MultiLineString","coordinates":[[[14.724848852263586,51.541513546616059,0.0],[14.725043278218358,51.541179421681917,0.0]]]}},
{"type":"Feature","properties":{"TARGET_FID":233,"START_uniq":"R-8E46B","START_Stra":"Schmelzstraße","END_uniqID":"R-8E46C","START_Stat":"Complete","START_Scha":"R167.6.11 | D 108.90 | S 107.71","START_Sc_1":"R167.6.11","START_Line":"R167.6","START_Hand":"8E3FC","START_D_m":108.9,"START_Ausl":"6","Shape_Leng":24.115247265699999,"END_Straß":"Schmelzstraße","END_Status":"Complete","END_Schach":"R167.6.12 | D 108.69 | S 107.47","END_Scha_1":"R167.6.12","START_S_m":107.71,"END_S_m":107.47,"END_Line":"R167.6","END_Handle":"8E3FC","END_D_m":108.69,"END_Auslau":"6","Direction":0.24,"Comment":null},"geometry":{"type":"MultiLineString","coordinates":[[[14.724635588916144,51.54170158402858,0.0],[14.724838793765798,51.541525624940888,0.0]]]}},
{"type":"Feature","properties":{"TARGET_FID":234,"START_uniq":"R-8E46A","START_Stra":"Schmelzstraße","END_uniqID":"R-8E46B","START_Stat":"Complete","START_Scha":"R167.6.10 | D 109.91 | S 108.77","START_Sc_1":"R167.6.10","START_Line":"R167.6","START_Hand":"8E401","START_D_m":109.91,"START_Ausl":"6","Shape_Leng":52.997278940800001,"END_Straß":"Schmelzstraße","END_Status":"Complete","END_Schach":"R167.6.11 | D 108.90 | S 107.71","END_Scha_1":"R167.6.11","START_S_m":108.77,"END_S_m":107.71,"END_Line":"R167.6","END_Handle":"8E401","END_D_m":108.9,"END_Auslau":"6","Direction":1.06,"Comment":null},"geometry":{"type":"MultiLineString","coordinates":[[[14.724003483567236,51.541992391697207,0.0],[14.724619940010619,51.541710755690076,0.0]]]}},
{"type":"Feature","properties":{"TARGET_FID":235,"START_uniq":"R-8E48F","START_Stra":"Schmelzstraße","END_uniqID":"R-8E490","START_Stat":"Complete","START_Scha":"R167.6.09 | D 110.02 | S 108.46","START_Sc_1":"R167.6.09","START_Line":"R167.6","START_Hand":"8E402","START_D_m":110.02,"START_Ausl":"6","Shape_Leng":19.279973724000001,"END_Straß":"Schmelzstraße","END_Status":"Complete","END_Schach":"R167.6.08 | D 109.64 | S 108.07","END_Scha_1":"R167.6.08","START_S_m":108.46,"END_S_m":108.07,"END_Line":"R167.6","END_Handle":"8E402","END_D_m":109.64,"END_Auslau":"6","Direction":0.39,"Comment":null},"geometry":{"type":"MultiLineString","coordinates":[[[14.723808452012534,51.542126250609002,0.0],[14.723659859961447,51.542272770066141,0.0]]]}},
{"type":"Feature","properties":{"TARGET_FID":236,"START_uniq":"R-8E490","START_Stra":"Schmelzstraße","END_uniqID":"R-8E491","START_Stat":"Complete","START_Scha":"R167.6.08 | D 109.64 | S 108.07","START_Sc_1":"R167.6.08","START_Line":"R167.6","START_Hand":"8E407","START_D_m":109.64,"START_Ausl":"6","Shape_Leng":34.202661850200002,"END_Straß":"Schmelzstraße","END_Status":"Complete","END_Schach":"R167.6.07 | D 109.06 | S 107.44","END_Scha_1":"R167.6.07","START_S_m":108.07,"END_S_m":107.44,"END_Line":"R167.6","END_Handle":"8E407","END_D_m":109.06,"END_Auslau":"6","Direction":0.63,"Comment":null},"geometry":{"type":"MultiLineString","coordinates":[[[14.723648876368125,51.542284182522735,0.0],[14.723421489034893,51.542557083944729,0.0]]]}},
{"type":"Feature","properties":{"TARGET_FID":237,"START_uniq":"R-8E492","START_Stra":"Schmelzstraße","END_uniqID":"R-8E493","START_Stat":"Complete","START_Scha":"R167.6.06 | D 109.23 | S 107.77","START_Sc_1":"R167.6.06","START_Line":"R167.6","START_Hand":"8E409","START_D_m":109.23,"START_Ausl":"6","Shape_Leng":11.7376792136,"END_Straß":"Gehalm Straße","END_Status":"Complete","END_Schach":"R130.6.05 | D 108.72 | S 107.4","END_Scha_1":"R130.6.05","START_S_m":107.77,"END_S_m":107.4,"END_Line":"R130.6","END_Handle":"8E409","END_D_m":108.72,"END_Auslau":"6","Direction":0.37,"Comment":null},"geometry":{"type":"MultiLineString","coordinates":[[[14.723362445760527,51.542633487384698,0.0],[14.723528495684288,51.542613039612633,0.0]]]}},
{"type":"Feature","properties":{"TARGET_FID":238,"START_uniq":"R-8E493","START_Stra":"Gehalm Straße","END_uniqID":"R-8E494","START_Stat":"Complete","START_Scha":"R130.6.05 | D 108.72 | S 107.4","START_Sc_1":"R130.6.05","START_Line":"R130.6","START_Hand":"8E411","START_D_m":108.72,"START_Ausl":"6","Shape_Leng":25.761443871899999,"END_Straß":"Gehalm Straße","END_Status":"Complete","END_Schach":"R130.6.04 | D 107.97 | S 106.59","END_Scha_1":"R130.6.04","START_S_m":107.4,"END_S_m":106.59,"END_Line":"R130.6","END_Handle":"8E411","END_D_m":107.97,"END_Auslau":"6","Direction":0.81,"Comment":null},"geometry":{"type":"MultiLineString","coordinates":[[[14.723549876475053,51.542612299618227,0.0],[14.72391697851406,51.542647754046328,0.0]]]}},
{"type":"Feature","properties":{"TARGET_FID":239,"START_uniq":"R-8E494","START_Stra":"Gehalm Straße","END_uniqID":"R-8E495","START_Stat":"Complete","START_Scha":"R130.6.04 | D 107.97 | S 106.59","START_Sc_1":"R130.6.04","START_Line":"R130.6","START_Hand":"8E413","START_D_m":107.97,"START_Ausl":"6","Shape_Leng":34.445284041400001,"END_Straß":"Gehalm Straße","END_Status":"Complete","END_Schach":"R130.6.03 | D 107.43 | S 105.8","END_Scha_1":"R130.6.03","START_S_m":106.59,"END_S_m":105.8,"END_Line":"R130.6","END_Handle":"8E413","END_D_m":107.43,"END_Auslau":"6","Direction":0.79,"Comment":null},"geometry":{"type":"MultiLineString","coordinates":[[[14.72393846055037,51.542649586740573,0.0],[14.724431896160965,51.542685039085598,0.0]]]}},
{"type":"Feature","properties":{"TARGET_FID":240,"START_uniq":"R-8E495","START_Stra":"Gehalm Straße","END_uniqID":"R-8E496","START_Stat":"Complete","START_Scha":"R130.6.03 | D 107.43 | S 105.8","START_Sc_1":"R130.6.03","START_Line":"R130.6","START_Hand":"8E415","START_D_m":107.43,"START_Ausl":"6","Shape_Leng":32.243763218600002,"END_Straß":"Gehalm Straße","END_Status":"Complete","END_Schach":"R130.6.02 | D 107.4 | S 105.47","END_Scha_1":"R130.6.02","START_S_m":105.8,"END_S_m":105.47,"END_Line":"R130.6","END_Handle":"8E415","END_D_m":107.4,"END_Auslau":"6","Direction":0.33,"Comment":null},"geometry":{"type":"MultiLineString","coordinates":[[[14.724453520691162,51.542686683194773,0.0],[14.724914901528305,51.542722561764094,0.0]]]}},
{"type":"Feature","properties":{"TARGET_FID":241,"START_uniq":"R-8E496","START_Stra":"Gehalm Straße","END_uniqID":"R-8E4BC","START_Stat":"Complete","START_Scha":"R130.6.02 | D 107.4 | S 105.47","START_Sc_1":"R130.6.02","START_Line":"R130.6","START_Hand":"8E419","START_D_m":107.4,"START_Ausl":"6","Shape_Leng":61.392016821,"END_Straß":"Gehalm Straße","END_Status":"Complete","END_Schach":"R130.6.01 | D 106.69 | S 105.11","END_Scha_1":"R130.6.01","START_S_m":105.47,"END_S_m":105.11,"END_Line":"R130.6","END_Handle":"8E419","END_D_m":106.69,"END_Auslau":"6","Direction":0.36,"Comment":null},"geometry":{"type":"MultiLineString","coordinates":[[[14.724934861967375,51.54272732289725,0.0],[14.725660422586309,51.543043601890638,0.0]]]}},
{"type":"Feature","properties":{"TARGET_FID":242,"START_uniq":"R-8E4BC","START_Stra":"Gehalm Straße","END_uniqID":"R-8E4C4","START_Stat":"Complete","START_Scha":"R130.6.01 | D 106.69 | S 105.11","START_Sc_1":"R130.6.01","START_Line":"R130.6","START_Hand":"8E41D","START_D_m":106.69,"START_Ausl":"6","Shape_Leng":35.470623787900003,"END_Straß":"Clara-Zetkin-Straße","END_Status":"Complete","END_Schach":"R115.6.07 | D 105.90 | S 104.53","END_Scha_1":"R115.6.07","START_S_m":105.11,"END_S_m":104.53,"END_Line":"R115.6","END_Handle":"8E41D","END_D_m":105.9,"END_Auslau":"6","Direction":0.58,"Comment":null},"geometry":{"type":"MultiLineString","coordinates":[[[14.725676384762627,51.54305239980738,0.0],[14.725992086107842,51.54330333825947,0.0]]]}},
{"type":"Feature","properties":{"TARGET_FID":243,"START_uniq":"R-8E4CF","START_Stra":"Clara-Zetkin-Straße","END_uniqID":"R-8E4CD","START_Stat":"Complete","START_Scha":"R115.6.10 | D 106.98 | S 105.35","START_Sc_1":"R115.6.10","START_Line":"R115.6","START_Hand":"8E41F","START_D_m":106.98,"START_Ausl":"6","Shape_Leng":27.059404870800002,"END_Straß":"Clara-Zetkin-Straße","END_Status":"Complete","END_Schach":"R115.6.09 | D 106.51 | S 105.21","END_Scha_1":"R115.6.09","START_S_m":105.35,"END_S_m":105.21,"END_Line":"R115.6","END_Handle":"8E41F","END_D_m":106.51,"END_Auslau":"6","Direction":0.14,"Comment":null},"geometry":{"type":"MultiLineString","coordinates":[[[14.724590263821929,51.543638562749322,0.0],[14.724979677412325,51.543623080658669,0.0]]]}},
{"type":"Feature","properties":{"TARGET_FID":244,"START_uniq":"R-8E4CE","START_Stra":"Clara-Zetkin-Straße","END_uniqID":"R-8E4D0","START_Stat":"Complete","START_Scha":"R115.6.12 | D 107.30 | S 105.71","START_Sc_1":"R115.6.12","START_Line":"R115.6","START_Hand":"8E421","START_D_m":107.3,"START_Ausl":"6","Shape_Leng":8.7120046890400005,"END_Straß":"Clara-Zetkin-Straße","END_Status":"Complete","END_Schach":"R115.6.11 (Sandfang) | D 107.04 | S 104.31","END_Scha_1":"R115.6.11","START_S_m":105.71,"END_S_m":104.31,"END_Line":"R115.6","END_Handle":"8E421","END_D_m":107.04,"END_Auslau":"6","Direction":1.4,"Comment":null},"geometry":{"type":"MultiLineString","coordinates":[[[14.724364988828398,51.543645904211502,0.0],[14.724490549844631,51.543643315456357,0.0]]]}},
{"type":"Feature","properties":{"TARGET_FID":245,"START_uniq":"R-8E4CD","START_Stra":"Clara-Zetkin-Straße","END_uniqID":"R-8E4C9","START_Stat":"Complete","START_Scha":"R115.6.09 | D 106.51 | S 105.21","START_Sc_1":"R115.6.09","START_Line":"R115.6","START_Hand":"8E425","START_D_m":106.51,"START_Ausl":"6","Shape_Leng":28.947069663600001,"END_Straß":"Clara-Zetkin-Straße","END_Status":"Complete","END_Schach":"R115.6.08 | D 106.19 | S 103.97","END_Scha_1":"R115.6.08","START_S_m":105.21,"END_S_m":103.97,"END_Line":"R115.6","END_Handle":"8E425","END_D_m":106.19,"END_Auslau":"6","Direction":1.24,"Comment":null},"geometry":{"type":"MultiLineString","coordinates":[[[14.725000713570333,51.54362073817299,0.0],[14.725403912146891,51.543553366299768,0.0]]]}},
{"type":"Feature","properties":{"TARGET_FID":246,"START_uniq":"R-8E4C9","START_Stra":"Clara-Zetkin-Straße","END_uniqID":"R-8E4C4","START_Stat":"Complete","START_Scha":"R115.6.08 | D 106.19 | S 103.97","START_Sc_1":"R115.6.08","START_Line":"R115.6","START_Hand":"8E42A","START_D_m":106.19,"START_Ausl":"6","Shape_Leng":47.155843876500001,"END_Straß":"Clara-Zetkin-Straße","END_Status":"Complete","END_Schach":"R115.6.07 | D 105.90 | S 104.53","END_Scha_1":"R115.6.07","START_S_m":103.97,"END_S_m":104.53,"END_Line":"R115.6","END_Handle":"8E42A","END_D_m":105.9,"END_Auslau":"6","Direction":-0.56,"Comment":null},"geometry":{"type":"MultiLineString","coordinates":[[[14.725423884037383,51.543547907427502,0.0],[14.725989854240369,51.543312876821354,0.0]]]}},
{"type":"Feature","properties":{"TARGET_FID":247,"START_uniq":"Junc-502","START_Stra":null,"END_uniqID":"R-8E499","START_Stat":"Missing Info","START_Scha":null,"START_Sc_1":"R132.6-Junction","START_Line":"R132.6","START_Hand":"8E42D","START_D_m":106.51314225199999,"START_Ausl":"6","Shape_Leng":38.284094844499997,"END_Straß":"Görlitzer Straße","END_Status":"Complete","END_Schach":"R132.6.02 | D 106.00 | S 104.69","END_Scha_1":"R132.6.02","START_S_m":104.9,"END_S_m":104.69,"END_Line":"R132.6","END_Handle":"8E42D","END_D_m":106.0,"END_Auslau":"6","Direction":0.21,"Comment":null},"geometry":{"type":"MultiLineString","coordinates":[[[14.725678187758076,51.54235538386866,0.0],[14.726104617188241,51.542136766187596,0.0]]]}},
{"type":"Feature","properties":{"TARGET_FID":248,"START_uniq":"R-8E488","START_Stra":"Gehalm Straße","END_uniqID":"R-8E489","START_Stat":"Missing Info","START_Scha":"R130.6.07 | 0 | 0","START_Sc_1":"R130.6.07","START_Line":"R130.6","START_Hand":"8E431","START_D_m":106.824383981,"START_Ausl":"6","Shape_Leng":26.844077667299999,"END_Straß":"Gehalm Straße","END_Status":"Missing Info","END_Schach":"R130.6.06 | D 106.59 | 0","END_Scha_1":"R130.6.06","START_S_m":105.5,"END_S_m":105.0,"END_Line":"R130.6","END_Handle":"8E431","END_D_m":106.59,"END_Auslau":"6","Direction":0.5,"Comment":null},"geometry":{"type":"MultiLineString","coordinates":[[[14.725278354950953,51.542492571520675,0.0],[14.725624800482624,51.542384904632947,0.0]]]}},
{"type":"Feature","properties":{"TARGET_FID":249,"START_uniq":"R-99298","START_Stra":"Gehalm Straße","END_uniqID":"R-8E488","START_Stat":"Missing Info","START_Scha":"R130.6.x | 0 | 0","START_Sc_1":"R130.6.x","START_Line":"R130.6","START_Hand":"8E433","START_D_m":106.893395756,"START_Ausl":"6","Shape_Leng":20.474976532900001,"END_Straß":"Gehalm Straße","END_Status":"Missing Info","END_Schach":"R130.6.07 | 0 | 0","END_Scha_1":"R130.6.07","START_S_m":106.0,"END_S_m":105.5,"END_Line":"R130.6","END_Handle":"8E433","END_D_m":106.824383981,"END_Auslau":"6","Direction":0.5,"Comment":null},"geometry":{"type":"MultiLineString","coordinates":[[[14.725000117307832,51.542586165218665,0.0],[14.72525887549442,51.542497507306514,0.0]]]}},
{"type":"Feature","properties":{"TARGET_FID":250,"START_uniq":"R-8E49A","START_Stra":"Görlitzer Straße","END_uniqID":"R-8E497","START_Stat":"Complete","START_Scha":"R132.6.04 | D 107.24 | S 105.77","START_Sc_1":"R132.6.04","START_Line":"R132.6","START_Hand":"8E439","START_D_m":107.24,"START_Ausl":"6","Shape_Leng":19.526346167100002,"END_Straß":"Görlitzer Straße","END_Status":"Complete","END_Schach":"R132.6.03 | D 106.74 | S 105.3","END_Scha_1":"R132.6.03","START_S_m":105.77,"END_S_m":105.3,"END_Line":"R132.6","END_Handle":"8E439","END_D_m":106.74,"END_Auslau":"6","Direction":0.47,"Comment":null},"geometry":{"type":"MultiLineString","coordinates":[[[14.725552283828197,51.541623546535163,0.0],[14.725679370512637,51.541780218139039,0.0]]]}},
{"type":"Feature","properties":{"TARGET_FID":251,"START_uniq":"R-8E49B","START_Stra":"Görlitzer Straße","END_uniqID":"R-8E49A","START_Stat":"Complete","START_Scha":"R132.6.05 | D 107.77 | S 106.23","START_Sc_1":"R132.6.05","START_Line":"R132.6","START_Hand":"8E43C","START_D_m":107.77,"START_Ausl":"6","Shape_Leng":19.210034315800002,"END_Straß":"Görlitzer Straße","END_Status":"Complete","END_Schach":"R132.6.04 | D 107.24 | S 105.77","END_Scha_1":"R132.6.04","START_S_m":106.23,"END_S_m":105.77,"END_Line":"R132.6","END_Handle":"8E43C","END_D_m":107.24,"END_Auslau":"6","Direction":0.46,"Comment":null},"geometry":{"type":"MultiLineString","coordinates":[[[14.725469855489706,51.541444405651113,0.0],[14.725545832979897,51.541610510584995,0.0]]]}},
{"type":"Feature","properties":{"TARGET_FID":252,"START_uniq":"R-8E4A1","START_Stra":"Görlitzer Straße","END_uniqID":"R-8E49B","START_Stat":"Complete","START_Scha":"R132.6.06 | D 108.68 | S 106.56","START_Sc_1":"R132.6.06","START_Line":"R132.6","START_Hand":"8E43E","START_D_m":108.68,"START_Ausl":"6","Shape_Leng":57.101204261600003,"END_Straß":"Görlitzer Straße","END_Status":"Complete","END_Schach":"R132.6.05 | D 107.77 | S 106.23","END_Scha_1":"R132.6.05","START_S_m":106.56,"END_S_m":106.23,"END_Line":"R132.6","END_Handle":"8E43E","END_D_m":107.77,"END_Auslau":"6","Direction":0.33,"Comment":null},"geometry":{"type":"MultiLineString","coordinates":[[[14.725350769095975,51.540922894124698,0.0],[14.725464937519741,51.541431366988249,0.0]]]}},
{"type":"Feature","properties":{"TARGET_FID":253,"START_uniq":"R-8E46D","START_Stra":"Schmelzstraße","END_uniqID":"R-8E482","START_Stat":"Complete","START_Scha":"R167.6.13 | D 109.58 | S 107.29","START_Sc_1":"R167.6.13","START_Line":"R167.6","START_Hand":"8E443","START_D_m":109.58,"START_Ausl":"6","Shape_Leng":30.917954891000001,"END_Straß":"Schmelzstraße","END_Status":"Complete","END_Schach":"R167.6.14 | D 109.01 | S 107.22","END_Scha_1":"R167.6.14","START_S_m":107.29,"END_S_m":107.22,"END_Line":"R167.6","END_Handle":"8E443","END_D_m":109.01,"END_Auslau":"6","Direction":0.07,"Comment":null},"geometry":{"type":"MultiLineString","coordinates":[[[14.725048335916725,51.541166377602906,0.0],[14.725166587837693,51.540898332778546,0.0]]]}},
{"type":"Feature","properties":{"TARGET_FID":254,"START_uniq":"R-8E482","START_Stra":"Schmelzstraße","END_uniqID":"R-8E4A1","START_Stat":"Complete","START_Scha":"R167.6.14 | D 109.01 | S 107.22","START_Sc_1":"R167.6.14","START_Line":"R167.6","START_Hand":"8E449","START_D_m":109.01,"START_Ausl":"6","Shape_Leng":11.238816419600001,"END_Straß":"Görlitzer Straße","END_Status":"Complete","END_Schach":"R132.6.06 | D 108.68 | S 106.56","END_Scha_1":"R132.6.06","START_S_m":107.22,"END_S_m":106.56,"END_Line":"R132.6","END_Handle":"8E449","END_D_m":108.68,"END_Auslau":"6","Direction":0.66,"Comment":null},"geometry":{"type":"MultiLineString","coordinates":[[[14.725179355634003,51.540892941594329,0.0],[14.72533750156245,51.540915009728693,0.0]]]}},
{"type":"Feature","properties":{"TARGET_FID":255,"START_uniq":"R-111176A1","START_Stra":"Near Deli Theater","END_uniqID":"Junc-502","START_Stat":"Missing Info","START_Scha":"0 | 0 | 0","START_Sc_1":"0","START_Line":"R132.6.02","START_Hand":"8E484","START_D_m":106.65462456100001,"START_Ausl":"6","Shape_Leng":11.1186630072,"END_Straß":null,"END_Status":"Missing Info","END_Schach":null,"END_Scha_1":"R132.6-Junction","START_S_m":105.0,"END_S_m":104.9,"END_Line":"R132.6","END_Handle":"8E484","END_D_m":106.51314225199999,"END_Auslau":"6","Direction":0.1,"Comment":null},"geometry":{"type":"MultiLineString","coordinates":[[[14.725568729573126,51.542282333030336,0.0],[14.725678187758076,51.54235538386866,0.0]]]}},
{"type":"Feature","properties":{"TARGET_FID":256,"START_uniq":"R-8E497","START_Stra":"Görlitzer Straße","END_uniqID":"R-8E499","START_Stat":"Complete","START_Scha":"R132.6.03 | D 106.74 | S 105.3","START_Sc_1":"R132.6.03","START_Line":"R132.6","START_Hand":"8E4A2","START_D_m":106.74,"START_Ausl":"6","Shape_Leng":47.093166387799997,"END_Straß":"Görlitzer Straße","END_Status":"Complete","END_Schach":"R132.6.02 | D 106.00 | S 104.69","END_Scha_1":"R132.6.02","START_S_m":105.3,"END_S_m":104.69,"END_Line":"R132.6","END_Handle":"8E4A2","END_D_m":106.0,"END_Auslau":"6","Direction":0.61,"Comment":null},"geometry":{"type":"MultiLineString","coordinates":[[[14.725691035361805,51.541791618993607,0.0],[14.726106038335725,51.542126786935015,0.0]]]}},
{"type":"Feature","properties":{"TARGET_FID":257,"START_uniq":"R-8E4D0","START_Stra":"Clara-Zetkin-Straße","END_uniqID":"R-8E4CF","START_Stat":"Complete","START_Scha":"R115.6.11 (Sandfang) | D 107.04 | S 104.31","START_Sc_1":"R115.6.11","START_Line":"R115.6","START_Hand":"8E4D1","START_D_m":107.04,"START_Ausl":"6","Shape_Leng":3.94927398419,"END_Straß":"Clara-Zetkin-Straße","END_Status":"Complete","END_Schach":"R115.6.10 | D 106.98 | S 105.35","END_Scha_1":"R115.6.10","START_S_m":105.45,"END_S_m":105.35,"END_Line":"R115.6","END_Handle":"8E4D1","END_D_m":106.98,"END_Auslau":"6","Direction":0.1,"Comment":"S104.31-S105.45"},"geometry":{"type":"MultiLineString","coordinates":[[[14.724512000070501,51.543642616811141,0.0],[14.724568747924655,51.543639629913727,0.0]]]}},
{"type":"Feature","properties":{"TARGET_FID":258,"START_uniq":"R-8E50D","START_Stra":"Clara-Zetkin-Straße","END_uniqID":"R-8E50E","START_Stat":"Complete","START_Scha":"R 115.6.02 | D 105.75 | S 103.32","START_Sc_1":"R115.6.02","START_Line":"R115.6","START_Hand":"8E4ED","START_D_m":105.75,"START_Ausl":"6","Shape_Leng":24.949106220899999,"END_Straß":"Clara-Zetkin-Straße","END_Status":"Complete","END_Schach":"R 115.6.01 | D 105.74 | S 103.19","END_Scha_1":"R115.6.01","START_S_m":103.32,"END_S_m":103.19,"END_Line":"R115.6","END_Handle":"8E4ED","END_D_m":105.74,"END_Auslau":"6","Direction":0.13,"Comment":null},"geometry":{"type":"MultiLineString","coordinates":[[[14.727276576047807,51.543524504034238,0.0],[14.727635777405888,51.543511869699763,0.0]]]}},
{"type":"Feature","properties":{"TARGET_FID":259,"START_uniq":"R-8E50C","START_Stra":"Clara-Zetkin-Straße","END_uniqID":"R-8E50D","START_Stat":"Complete","START_Scha":"R115.6.03 | D 105.62 | S 102.47","START_Sc_1":"R115.6.03","START_Line":"R115.6","START_Hand":"8E4EF","START_D_m":105.62,"START_Ausl":"6","Shape_Leng":57.724100878199998,"END_Straß":"Clara-Zetkin-Straße","END_Status":"Complete","END_Schach":"R 115.6.02 | D 105.75 | S 103.32","END_Scha_1":"R115.6.02","START_S_m":103.47,"END_S_m":103.32,"END_Line":"R115.6","END_Handle":"8E4EF","END_D_m":105.75,"END_Auslau":"6","Direction":0.15,"Comment":"S102.47-103.47"},"geometry":{"type":"MultiLineString","coordinates":[[[14.726822373846947,51.543079689900253,0.0],[14.727261284340571,51.543520705472503,0.0]]]}},
{"type":"Feature","properties":{"TARGET_FID":260,"START_uniq":"R-8E506","START_Stra":"Clara-Zetkin-Straße","END_uniqID":"R-8E50C","START_Stat":"Complete","START_Scha":"R115.6.06 | D 105.49 | S 103.87","START_Sc_1":"R115.6.06","START_Line":"R115.6","START_Hand":"8E4F3","START_D_m":105.49,"START_Ausl":"6","Shape_Leng":9.5519231837999996,"END_Straß":"Clara-Zetkin-Straße","END_Status":"Complete","END_Schach":"R115.6.03 | D 105.62 | S 102.47","END_Scha_1":"R115.6.03","START_S_m":103.87,"END_S_m":102.47,"END_Line":"R115.6","END_Handle":"8E4F3","END_D_m":105.62,"END_Auslau":"6","Direction":1.4,"Comment":null},"geometry":{"type":"MultiLineString","coordinates":[[[14.726742154158803,51.542995430863968,0.0],[14.726812531050383,51.54306926090851,0.0]]]}},
{"type":"Feature","properties":{"TARGET_FID":261,"START_uniq":"R-8E502","START_Stra":"Clara-Zetkin-Straße","END_uniqID":"R-8E509","START_Stat":"Complete","START_Scha":"R115.06.04 | D 106.25 | S 104.40","START_Sc_1":"R115.06.04","START_Line":"R115.6","START_Hand":"8E4F5","START_D_m":106.25,"START_Ausl":"6","Shape_Leng":29.419956455000001,"END_Straß":null,"END_Status":"Complete","END_Schach":"R115.6.05 | D 105.68 | S 103.97","END_Scha_1":"R115.6.05","START_S_m":104.4,"END_S_m":103.97,"END_Line":"R115.6","END_Handle":"8E4F5","END_D_m":105.68,"END_Auslau":"6","Direction":0.43,"Comment":null},"geometry":{"type":"MultiLineString","coordinates":[[[14.727432823040603,51.542717193534052,0.0],[14.727072306946445,51.542856630320614,0.0]]]}},
{"type":"Feature","properties":{"TARGET_FID":262,"START_uniq":"R-8E516","START_Stra":"Görlitzer Straße","END_uniqID":"R-8E509","START_Stat":"Complete","START_Scha":"R132.6.01 | D 105.65 | S 103.43","START_Sc_1":"R132.6.01","START_Line":"R132.6","START_Hand":"8E4F8","START_D_m":105.65,"START_Ausl":"6","Shape_Leng":47.077218652100001,"END_Straß":null,"END_Status":"Complete","END_Schach":"R115.6.05 | D 105.68 | S 103.97","END_Scha_1":"R115.6.05","START_S_m":103.43,"END_S_m":103.97,"END_Line":"R115.6","END_Handle":"8E4F8","END_D_m":105.68,"END_Auslau":"6","Direction":-0.54,"Comment":null},"geometry":{"type":"MultiLineString","coordinates":[[[14.726628109923405,51.542526989768177,0.0],[14.727056297467707,51.542855464625674,0.0]]]}},
{"type":"Feature","properties":{"TARGET_FID":263,"START_uniq":"R-8E509","START_Stra":null,"END_uniqID":"R-8E506","START_Stat":"Complete","START_Scha":"R115.6.05 | D 105.68 | S 103.97","START_Sc_1":"R115.6.05","START_Line":"R115.6","START_Hand":"8E4FE","START_D_m":105.68,"START_Ausl":"6","Shape_Leng":25.313376397,"END_Straß":"Clara-Zetkin-Straße","END_Status":"Complete","END_Schach":"R115.6.06 | D 105.49 | S 103.87","END_Scha_1":"R115.6.06","START_S_m":103.97,"END_S_m":103.87,"END_Line":"R115.6","END_Handle":"8E4FE","END_D_m":105.49,"END_Auslau":"6","Direction":0.1,"Comment":null},"geometry":{"type":"MultiLineString","coordinates":[[[14.72705339058702,51.542864346144341,0.0],[14.726745444674659,51.542986551145702,0.0]]]}},
{"type":"Feature","properties":{"TARGET_FID":341,"START_uniq":"R-8E769","START_Stra":null,"END_uniqID":"R-8E76C","START_Stat":"Complete","START_Scha":"R158.5.10 | D 106.42 | S 105.61","START_Sc_1":"R158.5.10","START_Line":"R158.5","START_Hand":"8E740","START_D_m":106.42,"START_Ausl":"5","Shape_Leng":25.195380438699999,"END_Straß":null,"END_Status":"Complete","END_Schach":"R158.5.09 | D 107.06 | S 105.59","END_Scha_1":"R158.5.09","START_S_m":105.61,"END_S_m":105.59,"END_Line":"R158.5","END_Handle":"8E740","END_D_m":107.06,"END_Auslau":"5","Direction":0.02,"Comment":null},"geometry":{"type":"MultiLineString","coordinates":[[[14.723499966224571,51.544020323897996,0.0],[14.723852770950902,51.544074452914437,0.0]]]}},
{"type":"Feature","properties":{"TARGET_FID":342,"START_uniq":"R-8E76C","START_Stra":null,"END_uniqID":"R-8E76B","START_Stat":"Complete","START_Scha":"R158.5.09 | D 107.06 | S 105.59","START_Sc_1":"R158.5.09","START_Line":"R158.5","START_Hand":"8E743","START_D_m":107.06,"START_Ausl":"5","Shape_Leng":43.074927885800001,"END_Straß":null,"END_Status":"Missing Info","END_Schach":"R 158.5.08 | 0 | 0","END_Scha_1":"R158.5.08","START_S_m":105.59,"END_S_m":105.0,"END_Line":"R158.5","END_Handle":"8E743","END_D_m":106.430644699,"END_Auslau":"5","Direction":0.59,"Comment":null},"geometry":{"type":"MultiLineString","coordinates":[[[14.723857880903562,51.544080521737939,0.0],[14.723596815138926,51.544431966538305,0.0]]]}},
{"type":"Feature","properties":{"TARGET_FID":343,"START_uniq":"R-8E76B","START_Stra":null,"END_uniqID":"R-8E77A","START_Stat":"Missing Info","START_Scha":"R 158.5.08 | 0 | 0","START_Sc_1":"R158.5.08","START_Line":"R158.5","START_Hand":"8E747","START_D_m":106.430644699,"START_Ausl":"5","Shape_Leng":41.636180713500003,"END_Straß":null,"END_Status":"Missing Info","END_Schach":"R 158.5.07 | 0 | S 104.79","END_Scha_1":"R158.5.07","START_S_m":105.0,"END_S_m":104.95,"END_Line":"R158.5","END_Handle":"8E747","END_D_m":106.763836857,"END_Auslau":"5","Direction":0.05,"Comment":null},"geometry":{"type":"MultiLineString","coordinates":[[[14.723585828808643,51.544443503963201,0.0],[14.723229598716332,51.544744869333748,0.0]]]}},
{"type":"Feature","properties":{"TARGET_FID":345,"START_uniq":"R-8E771","START_Stra":null,"END_uniqID":"R-8E77A","START_Stat":"Complete","START_Scha":"R158.5.17 | D 108.01 | S 105.50","START_Sc_1":"R158.5.17","START_Line":"R158.5","START_Hand":"8E74D","START_D_m":108.01,"START_Ausl":"5","Shape_Leng":35.681952870700002,"END_Straß":null,"END_Status":"Missing Info","END_Schach":"R 158.5.07 | 0 | S 104.79","END_Scha_1":"R158.5.07","START_S_m":105.5,"END_S_m":104.79,"END_Line":"R158.5","END_Handle":"8E74D","END_D_m":106.763836857,"END_Auslau":"5","Direction":0.71,"Comment":null},"geometry":{"type":"MultiLineString","coordinates":[[[14.72278785648963,51.544567882724145,0.0],[14.723216584286069,51.544745297212046,0.0]]]}},
{"type":"Feature","properties":{"TARGET_FID":347,"START_uniq":"R-8E75C","START_Stra":null,"END_uniqID":"R-8E773","START_Stat":"Complete","START_Scha":"R143.5.02 | D 108.30 | S 106.83","START_Sc_1":"R143.5.02","START_Line":"R143.5","START_Hand":"8E753","START_D_m":108.3,"START_Ausl":"5","Shape_Leng":53.131584339500002,"END_Straß":null,"END_Status":"Complete","END_Schach":"R143.5.01 | D 108.49 | S 105.57","END_Scha_1":"R143.5.01","START_S_m":106.83,"END_S_m":105.57,"END_Line":"R143.5","END_Handle":"8E753","END_D_m":108.49,"END_Auslau":"5","Direction":1.26,"Comment":null},"geometry":{"type":"MultiLineString","coordinates":[[[14.722924316221304,51.544273988161258,0.0],[14.722596627151722,51.544705828983481,0.0]]]}},
{"type":"Feature","properties":{"TARGET_FID":351,"START_uniq":"R-8E791","START_Stra":"Kirchstraße","END_uniqID":"R-8E3E5","START_Stat":"Missing Info","START_Scha":"R144.6.01 | 0 | S 107.43","START_Sc_1":"R144.6.01","START_Line":"R144.6","START_Hand":"8E78F","START_D_m":108.95503935399999,"START_Ausl":"6","Shape_Leng":69.295979594399995,"END_Straß":"Clara-Zetkin-Straße","END_Status":"Complete","END_Schach":"R115.6.15 | D 108.37 | S 106.95","END_Scha_1":"R115.6.15","START_S_m":107.43,"END_S_m":106.95,"END_Line":"R115.6","END_Handle":"8E78F","END_D_m":108.37,"END_Auslau":"6","Direction":0.48,"Comment":null},"geometry":{"type":"MultiLineString","coordinates":[[[14.722396025200311,51.544436298245444,0.0],[14.722781204409051,51.543861363468338,0.0]]]}},
{"type":"Feature","properties":{"TARGET_FID":453,"START_uniq":"R-8E50E","START_Stra":"Clara-Zetkin-Straße","END_uniqID":"Aus-494","START_Stat":"Complete","START_Scha":"R 115.6.01 | D 105.74 | S 103.19","START_Sc_1":"R115.6.01","START_Line":"R115.6","START_Hand":"9937F","START_D_m":105.74,"START_Ausl":"6","Shape_Leng":12.2227372705,"END_Straß":null,"END_Status":"Auslauf","END_Schach":null,"END_Scha_1":"Auslauf_6-2","START_S_m":103.19,"END_S_m":103.14,"END_Line":"Auslauf","END_Handle":"9937F","END_D_m":103.813925955,"END_Auslau":"6","Direction":0.05,"Comment":null},"geometry":{"type":"MultiLineString","coordinates":[[[14.727648894798365,51.543513453010185,0.0],[14.727730099127877,51.543610996216472,0.0]]]}},
{"type":"Feature","properties":{"TARGET_FID":454,"START_uniq":"R-8E50E","START_Stra":"Clara-Zetkin-Straße","END_uniqID":"Aus-493","START_Stat":"Complete","START_Scha":"R 115.6.01 | D 105.74 | S 103.19","START_Sc_1":"R115.6.01","START_Line":"R115.6","START_Hand":"99383","START_D_m":105.74,"START_Ausl":"6","Shape_Leng":11.5471426585,"END_Straß":null,"END_Status":"Auslauf","END_Schach":null,"END_Scha_1":"Auslauf_6-1","START_S_m":103.19,"END_S_m":103.15,"END_Line":"Auslauf","END_Handle":"99383","END_D_m":103.769735066,"END_Auslau":"6","Direction":0.04,"Comment":null},"geometry":{"type":"MultiLineString","coordinates":[[[14.727650415295722,51.543513836887534,0.0],[14.727737794302865,51.543602220205166,0.0]]]}},
{"type":"Feature","properties":{"TARGET_FID":456,"START_uniq":"R-11117687","START_Stra":"Near Deli-Theater","END_uniqID":"R-111176A1","START_Stat":"Missing Info","START_Scha":"0 | 0 | 0","START_Sc_1":"0","START_Line":"R132.6","START_Hand":"11117686","START_D_m":107.58688117600001,"START_Ausl":"0","Shape_Leng":56.285619751799999,"END_Straß":"Near Deli Theater","END_Status":"Missing Info","END_Schach":"0 | 0 | 0","END_Scha_1":"0","START_S_m":105.5,"END_S_m":105.0,"END_Line":"R132.6.02","END_Handle":"11117686","END_D_m":106.65462456100001,"END_Auslau":"6","Direction":0.5,"Comment":null},"geometry":{"type":"MultiLineString","coordinates":[[[14.725038555934898,51.541899132229773,0.0],[14.725568729573126,51.542282333030336,0.0]]]}},
{"type":"Feature","properties":{"TARGET_FID":467,"START_uniq":"R-111176A0","START_Stra":"Near Deli-Theater","END_uniqID":"R-11117687","START_Stat":"Missing Info","START_Scha":"0 | 0 | 0","START_Sc_1":"0","START_Line":"R132.6.02","START_Hand":"11117686","START_D_m":107.645256151,"START_Ausl":"6","Shape_Leng":18.741226134400002,"END_Straß":"Near Deli-Theater","END_Status":"Missing Info","END_Schach":"0 | 0 | 0","END_Scha_1":"0","START_S_m":106.0,"END_S_m":105.5,"END_Line":"R132.6","END_Handle":"11117686","END_D_m":107.58688117600001,"END_Auslau":"0","Direction":0.5,"Comment":null},"geometry":{"type":"MultiLineString","coordinates":[[[14.724845668457862,51.542017089797334,106.787299999996321],[14.725037988933176,51.541898703795987,106.787299999996321]]]}},
{"type":"Feature","properties":{"TARGET_FID":468,"START_uniq":"R-8E491","START_Stra":"Schmelzstraße","END_uniqID":"R-8E493","START_Stat":"Complete","START_Scha":"R167.6.07 | D 109.06 | S 107.44","START_Sc_1":"R167.6.07","START_Line":"R167.6","START_Hand":null,"START_D_m":109.06,"START_Ausl":"6","Shape_Leng":9.8244177239500008,"END_Straß":"Gehalm Straße","END_Status":"Complete","END_Schach":"R130.6.05 | D 108.72 | S 107.4","END_Scha_1":"R130.6.05","START_S_m":107.44,"END_S_m":107.4,"END_Line":"R130.6","END_Handle":null,"END_D_m":108.72,"END_Auslau":"6","Direction":0.04,"Comment":null},"geometry":{"type":"MultiLineString","coordinates":[[[14.723419129836914,51.542559951227531,0.0],[14.723535872697068,51.542609994425703,0.0]]]}},
{"type":"Feature","properties":{"TARGET_FID":469,"START_uniq":"R-8E49C","START_Stra":"Görlitzer Straße","END_uniqID":"R-8E4A1","START_Stat":"Complete","START_Scha":"R132.6.07 | D 108.25 | S 106.81","START_Sc_1":"R132.6.07","START_Line":"R132.6","START_Hand":null,"START_D_m":108.25,"START_Ausl":"6","Shape_Leng":24.648460337900001,"END_Straß":"Görlitzer Straße","END_Status":"Complete","END_Schach":"R132.6.06 | D 108.68 | S 106.56","END_Scha_1":"R132.6.06","START_S_m":106.81,"END_S_m":106.56,"END_Line":"R132.6","END_Handle":null,"END_D_m":108.68,"END_Auslau":"6","Direction":0.25,"Comment":null},"geometry":{"type":"MultiLineString","coordinates":[[[14.725265500443685,51.540695186812563,0.0],[14.725346406700842,51.540910997801262,0.0]]]}},
{"type":"Feature","properties":{"TARGET_FID":470,"START_uniq":"R-8E4DE","START_Stra":"Schmelzstraße","END_uniqID":"R-8E3E5","START_Stat":"Complete","START_Scha":"R167.6.01 | D 108.69 | S 107.43","START_Sc_1":"R167.6.01","START_Line":"R167.6","START_Hand":null,"START_D_m":108.69,"START_Ausl":"6","Shape_Leng":2.2203471000500001,"END_Straß":"Clara-Zetkin-Straße","END_Status":"Complete","END_Schach":"R115.6.15 | D 108.37 | S 106.95","END_Scha_1":"R115.6.15","START_S_m":107.43,"END_S_m":106.95,"END_Line":"R115.6","END_Handle":null,"END_D_m":108.37,"END_Auslau":"6","Direction":0.48,"Comment":null},"geometry":{"type":"MultiLineString","coordinates":[[[14.722781326349832,51.543832989598464,0.0],[14.722788640548615,51.543852426218002,0.0]]]}},
{"type":"Feature","properties":{"TARGET_FID":482,"START_uniq":"R-8E489","START_Stra":"Gehalm Straße","END_uniqID":"Junc-502","START_Stat":"Missing Info","START_Scha":"R130.6.06 | D 106.59 | 0","START_Sc_1":"R130.6.06","START_Line":"R130.6","START_Hand":"8E42D","START_D_m":106.59,"START_Ausl":"6","Shape_Leng":3.5051289565400001,"END_Straß":null,"END_Status":"Missing Info","END_Schach":null,"END_Scha_1":"R132.6-Junction","START_S_m":105.0,"END_S_m":104.9,"END_Line":"R132.6","END_Handle":"8E42D","END_D_m":106.51314225199999,"END_Auslau":"6","Direction":0.1,"Comment":null},"geometry":{"type":"MultiLineString","coordinates":[[[14.725642335864642,51.542377599427482,0.0],[14.725678187758076,51.54235538386866,0.0]]]}}
]
}
